{"type": "FeatureCollection", "features": [ {"type": "Feature", "properties": {"norad_id": 54234, "name": "NOAA 21 (JPSS-2)", "group": "weather", "lat": -11.925635677534245, "lon": 112.014913188313, "alt_km": 832.5401083097586, "timestamp": "2025-12-23T16:57:11.988345+00:00", "meta": {"OBJECT_NAME": "NOAA 21 (JPSS-2)", "OBJECT_ID": "2022-150A", "EPOCH": "2025-12-23T04:12:37.223712", "MEAN_MOTION": 14.19526903, "ECCENTRICITY": 0.00017503, "INCLINATION": 98.7477, "RA_OF_ASC_NODE": 293.3541, "ARG_OF_PERICENTER": 16.8851, "MEAN_ANOMALY": 343.2383, "EPHEMERIS_TYPE": 0, "CLASSIFICATION_TYPE": "U", "NORAD_CAT_ID": 54234, "ELEMENT_SET_NO": 999, "REV_AT_EPOCH": 16157, "BSTAR": 5.9309753e-05, "MEAN_MOTION_DOT": 8.1e-07, "MEAN_MOTION_DDOT": 0}, "tle": {"line1": "1 54234U 22150A   25357.17543083  .00000081  00000+0  59310-4 0  9991", "line2": "2 54234  98.7477 293.3541 0001750  16.8851 343.2383 14.19526903161577"}}, "geometry": {"type": "Point", "coordinates": [112.014913188313, -11.925635677534245]}}, {"type": "Feature", "properties": {"norad_id": 54743, "name": "METEOSAT-12 (MTG-I1)", "group": "weather", "lat": -0.4473639484376109, "lon": -13.512699159006038, "alt_km": 35785.34244741167, "timestamp": "2025-12-23T16:57:11.988357+00:00", "meta": {"OBJECT_NAME": "METEOSAT-12 (MTG-I1)", "OBJECT_ID": "2022-170C", "EPOCH": "2025-12-23T06:16:55.712352", "MEAN_MOTION": 1.00270796, "ECCENTRICITY": 0.00015576, "INCLINATION": 0.6976, "RA_OF_ASC_NODE": 25.3363, "ARG_OF_PERICENTER": 240.2744, "MEAN_ANOMALY": 280.3588, "EPHEMERIS_TYPE": 0, "CLASSIFICATION_TYPE": "U", "NORAD_CAT_ID": 54743, "ELEMENT_SET_NO": 999, "REV_AT_EPOCH": 1121, "BSTAR": 0, "MEAN_MOTION_DOT": 1.3e-07, "MEAN_MOTION_DDOT": 0}, "tle": {"line1": "1 54743U 22170C   25357.26175593  .00000013  00000+0  00000+0 0  9997", "line2": "2 54743   0.6976  25.3363 0001557 240.2744 280.3588  1.00270796 11217"}}, "geometry": {"type": "Point", "coordinates": [-13.512699159006038, -0.4473639484376109]}}, {"type": "Feature", "properties": {"norad_id": 55973, "name": "TIANMU-1 03", "group": "weather", "lat": -48.16852239827672, "lon": -27.810370843194544, "alt_km": 451.88380658088954, "timestamp": "2025-12-23T16:57:11.988368+00:00", "meta": {"OBJECT_NAME": "TIANMU-1 03", "OBJECT_ID": "2023-039A", "EPOCH": "2025-12-23T08:10:23.557152", "MEAN_MOTION": 15.41220257, "ECCENTRICITY": 0.00038904, "INCLINATION": 97.5111, "RA_OF_ASC_NODE": 160.2902, "ARG_OF_PERICENTER": 30.8595, "MEAN_ANOMALY": 329.2879, "EPHEMERIS_TYPE": 0, "CLASSIFICATION_TYPE": "U", "NORAD_CAT_ID": 55973, "ELEMENT_SET_NO": 999, "REV_AT_EPOCH": 15369, "BSTAR": 0.00038053795, "MEAN_MOTION_DOT": 0.00015734, "MEAN_MOTION_DDOT": 0}, "tle": {"line1": "1 55973U 23039A   25357.34055043  .00015734  00000+0  38054-3 0  9994", "line2": "2 55973  97.5111 160.2902 0003890  30.8595 329.2879 15.41220257153698"}}, "geometry": {"type": "Point", "coordinates": [-27.810370843194544, -48.16852239827672]}}, {"type": "Feature", "properties": {"norad_id": 55974, "name": "TIANMU-1 04", "group": "weather", "lat": -4.101482406416738, "lon": 160.39462058155692, "alt_km": 442.33965587867624, "timestamp": "2025-12-23T16:57:11.988379+00:00", "meta": {"OBJECT_NAME": "TIANMU-1 04", "OBJECT_ID": "2023-039B", "EPOCH": "2025-12-23T06:03:58.140864", "MEAN_MOTION": 15.41560938, "ECCENTRICITY": 0.0004503, "INCLINATION": 97.5042, "RA_OF_ASC_NODE": 159.3868, "ARG_OF_PERICENTER": 24.1422, "MEAN_ANOMALY": 336.0035, "EPHEMERIS_TYPE": 0, "CLASSIFICATION_TYPE": "U", "NORAD_CAT_ID": 55974, "ELEMENT_SET_NO": 999, "REV_AT_EPOCH": 15368, "BSTAR": 0.0004156953, "MEAN_MOTION_DOT": 0.00017397, "MEAN_MOTION_DDOT": 0}, "tle": {"line1": "1 55974U 23039B   25357.25275626  .00017397  00000+0  41570-3 0  9990", "line2": "2 55974  97.5042 159.3868 0004503  24.1422 336.0035 15.41560938153681"}}, "geometry": {"type": "Point", "coordinates": [160.39462058155692, -4.101482406416738]}}, {"type": "Feature", "properties": {"norad_id": 55975, "name": "TIANMU-1 05", "group": "weather", "lat": 12.575885487041027, "lon": 158.65962751068193, "alt_km": 441.6881167137053, "timestamp": "2025-12-23T16:57:11.988391+00:00", "meta": {"OBJECT_NAME": "TIANMU-1 05", "OBJECT_ID": "2023-039C", "EPOCH": "2025-12-23T07:32:56.166144", "MEAN_MOTION": 15.41176488, "ECCENTRICITY": 0.00040219, "INCLINATION": 97.5089, "RA_OF_ASC_NODE": 159.9431, "ARG_OF_PERICENTER": 49.3295, "MEAN_ANOMALY": 310.8301, "EPHEMERIS_TYPE": 0, "CLASSIFICATION_TYPE": "U", "NORAD_CAT_ID": 55975, "ELEMENT_SET_NO": 999, "REV_AT_EPOCH": 15367, "BSTAR": 0.00037946148, "MEAN_MOTION_DOT": 0.00015667, "MEAN_MOTION_DDOT": 0}, "tle": {"line1": "1 55975U 23039C   25357.31453896  .00015667  00000+0  37946-3 0  9995", "line2": "2 55975  97.5089 159.9431 0004021  49.3295 310.8301 15.41176488153675"}}, "geometry": {"type": "Point", "coordinates": [158.65962751068193, 12.575885487041027]}}, {"type": "Feature", "properties": {"norad_id": 55976, "name": "TIANMU-1 06", "group": "weather", "lat": -14.042750343763208, "lon": 162.71083850590043, "alt_km": 444.4129343405484, "timestamp": "2025-12-23T16:57:11.988402+00:00", "meta": {"OBJECT_NAME": "TIANMU-1 06", "OBJECT_ID": "2023-039D", "EPOCH": "2025-12-23T06:06:35.636832", "MEAN_MOTION": 15.41612314, "ECCENTRICITY": 0.00042776, "INCLINATION": 97.5099, "RA_OF_ASC_NODE": 160.3552, "ARG_OF_PERICENTER": 43.6059, "MEAN_ANOMALY": 316.5524, "EPHEMERIS_TYPE": 0, "CLASSIFICATION_TYPE": "U", "NORAD_CAT_ID": 55976, "ELEMENT_SET_NO": 999, "REV_AT_EPOCH": 15368, "BSTAR": 0.00041344841, "MEAN_MOTION_DOT": 0.00017331, "MEAN_MOTION_DDOT": 0}, "tle": {"line1": "1 55976U 23039D   25357.25457913  .00017331  00000+0  41345-3 0  9991", "line2": "2 55976  97.5099 160.3552 0004277  43.6059 316.5524 15.41612314153689"}}, "geometry": {"type": "Point", "coordinates": [162.71083850590043, -14.042750343763208]}}, {"type": "Feature", "properties": {"norad_id": 56232, "name": "FENGYUN 3G", "group": "weather", "lat": -47.76738759517793, "lon": 103.12510828945653, "alt_km": 408.2578668486094, "timestamp": "2025-12-23T16:57:11.988412+00:00", "meta": {"OBJECT_NAME": "FENGYUN 3G", "OBJECT_ID": "2023-055A", "EPOCH": "2025-12-23T00:18:13.416192", "MEAN_MOTION": 15.54230372, "ECCENTRICITY": 0.00092801, "INCLINATION": 49.9923, "RA_OF_ASC_NODE": 174.4174, "ARG_OF_PERICENTER": 194.6693, "MEAN_ANOMALY": 165.4007, "EPHEMERIS_TYPE": 0, "CLASSIFICATION_TYPE": "U", "NORAD_CAT_ID": 56232, "ELEMENT_SET_NO": 999, "REV_AT_EPOCH": 15262, "BSTAR": 0.00048841065, "MEAN_MOTION_DOT": 0.00032207, "MEAN_MOTION_DDOT": 0}, "tle": {"line1": "1 56232U 23055A   25357.01265528  .00032207  00000+0  48841-3 0  9995", "line2": "2 56232  49.9923 174.4174 0009280 194.6693 165.4007 15.54230372152622"}}, "geometry": {"type": "Point", "coordinates": [103.12510828945653, -47.76738759517793]}}, {"type": "Feature", "properties": {"norad_id": 57166, "name": "METEOR-M2 3", "group": "weather", "lat": -79.58368868316178, "lon": 106.82015704472286, "alt_km": 817.8693699208688, "timestamp": "2025-12-23T16:57:11.988432+00:00", "meta": {"OBJECT_NAME": "METEOR-M2 3", "OBJECT_ID": "2023-091A", "EPOCH": "2025-12-23T07:13:47.740800", "MEAN_MOTION": 14.240273, "ECCENTRICITY": 0.00033339, "INCLINATION": 98.6363, "RA_OF_ASC_NODE": 50.6555, "ARG_OF_PERICENTER": 336.415, "MEAN_ANOMALY": 23.6875, "EPHEMERIS_TYPE": 0, "CLASSIFICATION_TYPE": "U", "NORAD_CAT_ID": 57166, "ELEMENT_SET_NO": 999, "REV_AT_EPOCH": 12948, "BSTAR": 2.4218502e-05, "MEAN_MOTION_DOT": 1.2e-07, "MEAN_MOTION_DDOT": 0}, "tle": {"line1": "1 57166U 23091A   25357.30124700  .00000012  00000+0  24219-4 0  9993", "line2": "2 57166  98.6363  50.6555 0003333 336.4150  23.6875 14.24027300129480"}}, "geometry": {"type": "Point", "coordinates": [106.82015704472286, -79.58368868316178]}}, {"type": "Feature", "properties": {"norad_id": 57399, "name": "TIANMU-1 07", "group": "weather", "lat": -65.55199704457286, "lon": -149.0302692694989, "alt_km": 491.8091076981991, "timestamp": "2025-12-23T16:57:11.988451+00:00", "meta": {"OBJECT_NAME": "TIANMU-1 07", "OBJECT_ID": "2023-101A", "EPOCH": "2025-12-23T08:01:13.598688", "MEAN_MOTION": 15.28215213, "ECCENTRICITY": 0.00051145, "INCLINATION": 97.2857, "RA_OF_ASC_NODE": 46.9503, "ARG_OF_PERICENTER": 54.6449, "MEAN_ANOMALY": 305.5268, "EPHEMERIS_TYPE": 0, "CLASSIFICATION_TYPE": "U", "NORAD_CAT_ID": 57399, "ELEMENT_SET_NO": 999, "REV_AT_EPOCH": 13477, "BSTAR": 0.00027203049, "MEAN_MOTION_DOT": 7.41e-05, "MEAN_MOTION_DDOT": 0}, "tle": {"line1": "1 57399U 23101A   25357.33418517  .00007410  00000+0  27203-3 0  9992", "line2": "2 57399  97.2857  46.9503 0005114  54.6449 305.5268 15.28215213134774"}}, "geometry": {"type": "Point", "coordinates": [-149.0302692694989, -65.55199704457286]}}, {"type": "Feature", "properties": {"norad_id": 57400, "name": "TIANMU-1 08", "group": "weather", "lat": 66.49336782197543, "lon": 30.006752169917817, "alt_km": 470.04835221039866, "timestamp": "2025-12-23T16:57:11.988462+00:00", "meta": {"OBJECT_NAME": "TIANMU-1 08", "OBJECT_ID": "2023-101B", "EPOCH": "2025-12-23T07:13:48.260064", "MEAN_MOTION": 15.28196336, "ECCENTRICITY": 0.00070716, "INCLINATION": 97.2846, "RA_OF_ASC_NODE": 46.7143, "ARG_OF_PERICENTER": 54.0639, "MEAN_ANOMALY": 306.1256, "EPHEMERIS_TYPE": 0, "CLASSIFICATION_TYPE": "U", "NORAD_CAT_ID": 57400, "ELEMENT_SET_NO": 999, "REV_AT_EPOCH": 13476, "BSTAR": 0.00027970366, "MEAN_MOTION_DOT": 7.619e-05, "MEAN_MOTION_DDOT": 0}, "tle": {"line1": "1 57400U 23101B   25357.30125301  .00007619  00000+0  27970-3 0  9990", "line2": "2 57400  97.2846  46.7143 0007071  54.0639 306.1256 15.28196336134769"}}, "geometry": {"type": "Point", "coordinates": [30.006752169917817, 66.49336782197543]}}]}